{"type": "FeatureCollection", "features": [ {"type": "Feature", "properties": {"norad_id": 40118, "name": "GAOFEN-2", "group": "resource", "lat": 68.46805761417284, "lon": 40.10394033204202, "alt_km": 614.5342424064056, "timestamp": "2025-12-27T21:25:02.157541+00:00", "meta": {"OBJECT_NAME": "GAOFEN-2", "OBJECT_ID": "2014-049A", "EPOCH": "2025-12-27T12:59:35.988000", "MEAN_MOTION": 14.8063611, "ECCENTRICITY": 0.0008739, "INCLINATION": 98.0361, "RA_OF_ASC_NODE": 60.7342, "ARG_OF_PERICENTER": 72.1919, "MEAN_ANOMALY": 288.0245, "EPHEMERIS_TYPE": 0, "CLASSIFICATION_TYPE": "U", "NORAD_CAT_ID": 40118, "ELEMENT_SET_NO": 999, "REV_AT_EPOCH": 61383, "BSTAR": 0.00021243, "MEAN_MOTION_DOT": 1.579e-05, "MEAN_MOTION_DDOT": 0}, "tle": {"line1": "1 40118U 14049A   25361.54138875  .00001579  00000+0  21243-3 0  9996", "line2": "2 40118  98.0361  60.7342 0008739  72.1919 288.0245 14.80636110613831"}}, "geometry": {"type": "Point", "coordinates": [40.10394033204202, 68.46805761417284]}}, {"type": "Feature", "properties": {"norad_id": 40143, "name": "YAOGAN-21", "group": "resource", "lat": -41.29972441041748, "lon": -141.80671827973197, "alt_km": 504.53883468851654, "timestamp": "2025-12-27T21:25:02.157558+00:00", "meta": {"OBJECT_NAME": "YAOGAN-21", "OBJECT_ID": "2014-053A", "EPOCH": "2025-12-27T12:34:02.604864", "MEAN_MOTION": 15.23833644, "ECCENTRICITY": 0.0008298, "INCLINATION": 97.1738, "RA_OF_ASC_NODE": 44.1934, "ARG_OF_PERICENTER": 352.397, "MEAN_ANOMALY": 7.7141, "EPHEMERIS_TYPE": 0, "CLASSIFICATION_TYPE": "U", "NORAD_CAT_ID": 40143, "ELEMENT_SET_NO": 999, "REV_AT_EPOCH": 62879, "BSTAR": 0.00043991, "MEAN_MOTION_DOT": 0.0001055, "MEAN_MOTION_DDOT": 0}, "tle": {"line1": "1 40143U 14053A   25361.52364126  .00010550  00000+0  43991-3 0  9990", "line2": "2 40143  97.1738  44.1934 0008298 352.3970   7.7141 15.23833644628791"}}, "geometry": {"type": "Point", "coordinates": [-141.80671827973197, -41.29972441041748]}}, {"type": "Feature", "properties": {"norad_id": 40275, "name": "YAOGAN-22", "group": "resource", "lat": -55.86735645837063, "lon": -50.737091142020205, "alt_km": 1204.5732986016774, "timestamp": "2025-12-27T21:25:02.157569+00:00", "meta": {"OBJECT_NAME": "YAOGAN-22", "OBJECT_ID": "2014-063A", "EPOCH": "2025-12-27T05:36:45.156672", "MEAN_MOTION": 13.15523321, "ECCENTRICITY": 0.0006126, "INCLINATION": 100.7431, "RA_OF_ASC_NODE": 144.8585, "ARG_OF_PERICENTER": 213.6133, "MEAN_ANOMALY": 146.459, "EPHEMERIS_TYPE": 0, "CLASSIFICATION_TYPE": "U", "NORAD_CAT_ID": 40275, "ELEMENT_SET_NO": 999, "REV_AT_EPOCH": 53720, "BSTAR": 7.6263e-05, "MEAN_MOTION_DOT": -1.8e-07, "MEAN_MOTION_DDOT": 0}, "tle": {"line1": "1 40275U 14063A   25361.23385598 -.00000018  00000+0  76263-4 0  9999", "line2": "2 40275 100.7431 144.8585 0006126 213.6133 146.4590 13.15523321537207"}}, "geometry": {"type": "Point", "coordinates": [-50.737091142020205, -55.86735645837063]}}, {"type": "Feature", "properties": {"norad_id": 40298, "name": "ASNARO", "group": "resource", "lat": 45.66874991004189, "lon": 69.86245792281841, "alt_km": 499.27077698776975, "timestamp": "2025-12-27T21:25:02.157580+00:00", "meta": {"OBJECT_NAME": "ASNARO", "OBJECT_ID": "2014-070A", "EPOCH": "2025-12-27T11:44:02.676768", "MEAN_MOTION": 15.19808719, "ECCENTRICITY": 0.0005665, "INCLINATION": 97.3633, "RA_OF_ASC_NODE": 77.0754, "ARG_OF_PERICENTER": 82.2048, "MEAN_ANOMALY": 277.983, "EPHEMERIS_TYPE": 0, "CLASSIFICATION_TYPE": "U", "NORAD_CAT_ID": 40298, "ELEMENT_SET_NO": 999, "REV_AT_EPOCH": 61793, "BSTAR": 0.00076304, "MEAN_MOTION_DOT": 0.00016306, "MEAN_MOTION_DDOT": 0}, "tle": {"line1": "1 40298U 14070A   25361.48891987  .00016306  00000+0  76304-3 0  9994", "line2": "2 40298  97.3633  77.0754 0005665  82.2048 277.9830 15.19808719617933"}}, "geometry": {"type": "Point", "coordinates": [69.86245792281841, 45.66874991004189]}}, {"type": "Feature", "properties": {"norad_id": 40310, "name": "YAOGAN-24", "group": "resource", "lat": 7.100300679025737, "lon": -45.913235306586216, "alt_km": 641.4751167108116, "timestamp": "2025-12-27T21:25:02.157591+00:00", "meta": {"OBJECT_NAME": "YAOGAN-24", "OBJECT_ID": "2014-072A", "EPOCH": "2025-12-27T12:30:18.325152", "MEAN_MOTION": 14.76206797, "ECCENTRICITY": 0.0015225, "INCLINATION": 98.1231, "RA_OF_ASC_NODE": 132.6941, "ARG_OF_PERICENTER": 93.9558, "MEAN_ANOMALY": 266.3392, "EPHEMERIS_TYPE": 0, "CLASSIFICATION_TYPE": "U", "NORAD_CAT_ID": 40310, "ELEMENT_SET_NO": 999, "REV_AT_EPOCH": 59839, "BSTAR": 0.00015237, "MEAN_MOTION_DOT": 1.003e-05, "MEAN_MOTION_DDOT": 0}, "tle": {"line1": "1 40310U 14072A   25361.52104543  .00001003  00000+0  15237-3 0  9997", "line2": "2 40310  98.1231 132.6941 0015225  93.9558 266.3392 14.76206797598398"}}, "geometry": {"type": "Point", "coordinates": [-45.913235306586216, 7.100300679025737]}}, {"type": "Feature", "properties": {"norad_id": 40336, "name": "CBERS 4", "group": "resource", "lat": -37.39186454932801, "lon": -127.03955151679567, "alt_km": 780.4223629556454, "timestamp": "2025-12-27T21:25:02.157601+00:00", "meta": {"OBJECT_NAME": "CBERS 4", "OBJECT_ID": "2014-079A", "EPOCH": "2025-12-27T12:02:31.100640", "MEAN_MOTION": 14.35524338, "ECCENTRICITY": 0.0001894, "INCLINATION": 98.3285, "RA_OF_ASC_NODE": 59.0119, "ARG_OF_PERICENTER": 95.7836, "MEAN_ANOMALY": 264.3566, "EPHEMERIS_TYPE": 0, "CLASSIFICATION_TYPE": "U", "NORAD_CAT_ID": 40336, "ELEMENT_SET_NO": 999, "REV_AT_EPOCH": 57932, "BSTAR": 0.00015489, "MEAN_MOTION_DOT": 4.04e-06, "MEAN_MOTION_DDOT": 0}, "tle": {"line1": "1 40336U 14079A   25361.50174885  .00000404  00000+0  15489-3 0  9999", "line2": "2 40336  98.3285  59.0119 0001894  95.7836 264.3566 14.35524338579324"}}, "geometry": {"type": "Point", "coordinates": [-127.03955151679567, -37.39186454932801]}}, {"type": "Feature", "properties": {"norad_id": 40362, "name": "YAOGAN-26", "group": "resource", "lat": 75.64479433192449, "lon": -26.954764572507056, "alt_km": 439.82097820396484, "timestamp": "2025-12-27T21:25:02.157611+00:00", "meta": {"OBJECT_NAME": "YAOGAN-26", "OBJECT_ID": "2014-088A", "EPOCH": "2025-12-27T13:17:02.468256", "MEAN_MOTION": 15.39827345, "ECCENTRICITY": 0.0004021, "INCLINATION": 97.0647, "RA_OF_ASC_NODE": 1.704, "ARG_OF_PERICENTER": 340.9873, "MEAN_ANOMALY": 19.1223, "EPHEMERIS_TYPE": 0, "CLASSIFICATION_TYPE": "U", "NORAD_CAT_ID": 40362, "ELEMENT_SET_NO": 999, "REV_AT_EPOCH": 61122, "BSTAR": 0.00029908, "MEAN_MOTION_DOT": 0.00011793, "MEAN_MOTION_DDOT": 0}, "tle": {"line1": "1 40362U 14088A   25361.55350079  .00011793  00000+0  29908-3 0  9998", "line2": "2 40362  97.0647   1.7040 0004021 340.9873  19.1223 15.39827345611220"}}, "geometry": {"type": "Point", "coordinates": [-26.954764572507056, 75.64479433192449]}}, {"type": "Feature", "properties": {"norad_id": 40376, "name": "SMAP", "group": "resource", "lat": 42.83232895520211, "lon": -165.98754502208845, "alt_km": 678.1836557672859, "timestamp": "2025-12-27T21:25:02.157622+00:00", "meta": {"OBJECT_NAME": "SMAP", "OBJECT_ID": "2015-003A", "EPOCH": "2025-12-27T10:56:57.428736", "MEAN_MOTION": 14.63363524, "ECCENTRICITY": 0.0001246, "INCLINATION": 98.1291, "RA_OF_ASC_NODE": 5.968, "ARG_OF_PERICENTER": 92.2807, "MEAN_ANOMALY": 267.8538, "EPHEMERIS_TYPE": 0, "CLASSIFICATION_TYPE": "U", "NORAD_CAT_ID": 40376, "ELEMENT_SET_NO": 999, "REV_AT_EPOCH": 58250, "BSTAR": 0.00013512, "MEAN_MOTION_DOT": 6.51e-06, "MEAN_MOTION_DDOT": 0}, "tle": {"line1": "1 40376U 15003A   25361.45622024  .00000651  00000+0  13512-3 0  9997", "line2": "2 40376  98.1291   5.9680 0001246  92.2807 267.8538 14.63363524582507"}}, "geometry": {"type": "Point", "coordinates": [-165.98754502208845, 42.83232895520211]}}, {"type": "Feature", "properties": {"norad_id": 40536, "name": "KOMPSAT-3A", "group": "resource", "lat": -81.95474635560326, "lon": 49.79201833140414, "alt_km": 444.0280505116689, "timestamp": "2025-12-27T21:25:02.157633+00:00", "meta": {"OBJECT_NAME": "KOMPSAT-3A", "OBJECT_ID": "2015-014A", "EPOCH": "2025-12-27T12:28:01.623072", "MEAN_MOTION": 15.44503955, "ECCENTRICITY": 0.0005696, "INCLINATION": 97.6807, "RA_OF_ASC_NODE": 336.6892, "ARG_OF_PERICENTER": 95.8159, "MEAN_ANOMALY": 264.3738, "EPHEMERIS_TYPE": 0, "CLASSIFICATION_TYPE": "U", "NORAD_CAT_ID": 40536, "ELEMENT_SET_NO": 999, "REV_AT_EPOCH": 59523, "BSTAR": 0.00047424, "MEAN_MOTION_DOT": 0.00021937, "MEAN_MOTION_DDOT": 0}, "tle": {"line1": "1 40536U 15014A   25361.51946323  .00021937  00000+0  47424-3 0  9994", "line2": "2 40536  97.6807 336.6892 0005696  95.8159 264.3738 15.44503955595235"}}, "geometry": {"type": "Point", "coordinates": [49.79201833140414, -81.95474635560326]}}, {"type": "Feature", "properties": {"norad_id": 40697, "name": "SENTINEL-2A", "group": "resource", "lat": 32.13429777668334, "lon": 68.77612242347611, "alt_km": 786.6581341926585, "timestamp": "2025-12-27T21:25:02.157643+00:00", "meta": {"OBJECT_NAME": "SENTINEL-2A", "OBJECT_ID": "2015-028A", "EPOCH": "2025-12-27T11:11:44.559744", "MEAN_MOTION": 14.308125, "ECCENTRICITY": 0.0001048, "INCLINATION": 98.5722, "RA_OF_ASC_NODE": 73.7929, "ARG_OF_PERICENTER": 87.7307, "MEAN_ANOMALY": 272.3996, "EPHEMERIS_TYPE": 0, "CLASSIFICATION_TYPE": "U", "NORAD_CAT_ID": 40697, "ELEMENT_SET_NO": 999, "REV_AT_EPOCH": 54917, "BSTAR": 0.0002016, "MEAN_MOTION_DOT": 4.85e-06, "MEAN_MOTION_DDOT": 0}, "tle": {"line1": "1 40697U 15028A   25361.46648796  .00000485  00000+0  20160-3 0  9997", "line2": "2 40697  98.5722  73.7929 0001048  87.7307 272.3996 14.30812500549171"}}, "geometry": {"type": "Point", "coordinates": [68.77612242347611, 32.13429777668334]}}]}